#aV2010  2  2  0  0   .00000000      96 DD+AD WGS84 FIT  NGA
## 1569 172800.00000000   900.00000000 55229  .0000000000000
+   32     1  2  3  4  5  6  7  8  9 10 11 12 13 14 15 16 17
+         18 19 20 21 22 23 24 25 26 27 28 29 30 31 32  0  0
+          0  0  0  0  0  0  0  0  0  0  0  0  0  0  0  0  0
+          0  0  0  0  0  0  0  0  0  0  0  0  0  0  0  0  0
+          0  0  0  0  0  0  0  0  0  0  0  0  0  0  0  0  0
++         0  0  0  0  0  0  0  0  0  0  0  0  0  0  0  0  0
++         0  0  0  0  0  0  0  0  0  0  0  0  0  0  0  0  0
++         0  0  0  0  0  0  0  0  0  0  0  0  0  0  0  0  0
++         0  0  0  0  0  0  0  0  0  0  0  0  0  0  0  0  0
++         0  0  0  0  0  0  0  0  0  0  0  0  0  0  0  0  0
%c cc cc ccc ccc cccc cccc cccc cccc ccccc ccccc ccccc ccccc
%c cc cc ccc ccc cccc cccc cccc cccc ccccc ccccc ccccc ccccc
%f  0.0000000  0.000000000  0.00000000000  0.000000000000000
%f  0.0000000  0.000000000  0.00000000000  0.000000000000000
%i    0    0    0    0      0      0      0      0         0
%i    0    0    0    0      0      0      0      0         0
/*      NGA, ST. LOUIS,MO.                                  
/*   EPHEMERIS COMPUTED FROM  3 DAYS OF DATA                
/* CCCCCCCCCCCCCCCCCCCCCCCCCCCCCCCCCCCCCCCCCCCCCCCCCCCCCCCCC
/* CCCCCCCCCCCCCCCCCCCCCCCCCCCCCCCCCCCCCCCCCCCCCCCCCCCCCCCCC
*  2010  2  2  7 15   .00000000                                                 
P  1  14902.915122  17919.251150 -12991.042338    -85.028871                    
V  1 -15373.466605  -5659.054162 -25527.948810      -.035701                    
P  2 -22678.811910  13245.820968  -1767.620116    222.230785                    
V  2   -250.199575  -4434.059347 -31463.349624       .041432                    
P  3  11663.792830 -14576.516629  18413.258666    510.243893                    
V  3   5938.497041  23709.656865  15072.684209       .051367                    
P  4 -22982.695960   2730.171623 -13515.897355      5.097264                    
V  4  12946.592041 -10977.586355 -24172.770108       .092083                    
P  5 -16625.123689   6789.019120  19577.186160    -11.272392                    
V  5 -21491.581199 -12591.263056 -13784.961254       .029853                    
P  6  13957.406860 -10625.213448  20092.873213    254.625331                    
V  6   3520.791159  25034.275408  11006.731693      -.042917                    
P  7  -6762.821712 -13446.146213  21871.954906      3.436207                    
V  7  23621.463859 -14591.844203  -1818.107310      -.005514                    
P  8 -18048.737196  -4489.684063  19148.539016      2.816293                    
V  8  20885.845412 -12037.005762  16340.173399       .004210                    
P  9 -11842.015759  19504.286286 -14216.242930    103.622560                    
V  9 -14908.288982   8156.796255  24813.931925       .021937                    
P 10 -21219.769991   1125.560078  15966.107302    -34.384793                    
V 10 -16988.766820 -11597.838747 -21175.443535      -.010353                    
P 11   5340.663960 -21794.153255 -14194.776591    -43.062198                    
V 11  15390.552119 -10076.710147  22020.419876      -.021051                    
P 12    519.736730  16475.058628 -20800.655701   -155.295327                    
V 12 -23673.992952 -11888.867620  -9845.299949       .048294                    
P 13  -5623.565004 -24053.434002   9611.011324    306.607682                    
V 13   1950.419758 -12310.698938 -29286.448747      -.000879                    
P 14  13559.323673   9602.373902 -20614.943774      7.099611                    
V 14   -815.617853  26380.798717  11557.879549       .043426                    
P 15  -8033.550443  21664.906372  13025.578615   -309.571962                    
V 15  -3380.333720 -16394.126232  25334.106976       .026449                    
P 16  21333.231256   -618.273510  16023.909070    -37.065979                    
V 16  16816.131659  11170.740094 -21768.858068      -.040469                    
P 17 -14613.319446  -7894.724068 -20688.387778    126.388613                    
V 17    308.004036 -26421.245681   9619.071083       .030899                    
P 18  17716.949292  17811.827611   9429.374794     46.115744                    
V 18 -11445.054165  -3173.559977  27896.086166       .026205                    
P 19   8912.162754 -22080.708507  11494.072806    -13.176527                    
V 19   2122.591821  14741.316343  27039.721277      -.022942                    
P 20  -4694.931728 -17942.090026 -19168.709800     62.112218                    
V 20  22329.365085   9232.784990 -14152.564149      -.007605                    
P 21  12288.741227  10942.712712  21226.728309    -37.936472                    
V 21 -22267.965466  13976.478856   5138.907470      -.024593                    
P 22  23778.037228  11724.443778  -2040.770790    180.064169                    
V 22    691.236969   4432.510629  31011.609529      -.010130                    
P 23     23.396907 -26366.030590  -1250.820282    380.932860                    
V 23   2858.160154   1478.161949 -32087.854959      -.009276                    
P 24   -365.124317  17060.693136  20516.309664    258.933274                    
V 24 -22933.622995  11865.957468 -10068.849256       .033450                    
P 25   -423.326620 -17328.202514  20525.747399     91.414425                    
V 25  20454.528185 -14746.512408 -12039.438818       .071718                    
P 26  10481.728867  18060.461940 -16671.294514    -14.761714                    
V 26  -1820.802412  20232.319834  21930.135081      -.033595                    
P 27 -14867.762409  19033.435325 -10232.858698    122.541363                    
V 27 -12777.558277   6258.406169  28406.885925       .034723                    
P 28 -22934.423690 -13719.067643    813.109993    -22.754111                    
V 28   1536.819590  -1761.310762  31719.043277       .005822                    
P 29   4672.961205  25410.999111   6333.521270     94.795937                    
V 29  -2580.325439   7941.473203 -30360.206138       .030668                    
P 30  11379.759950  18070.954182 -16217.154329    215.918528                    
V 30 -18770.351465  -6793.998444 -21197.656775       .033448                    
P 31  23255.101428  -5334.605250 -11622.932439    -53.068116                    
V 31 -11675.071673   9638.075373 -27113.276786       .014647                    
P 32   5494.925425 -14251.008747 -21394.374824    103.979696                    
V 32  23672.343852  14945.499943  -3498.353774      -.082087                    
EOF
